#dP2021  3 21 18  0  0.00000000      96 __u+U ITR00 EXT  IAC
## 2150  64800.00000000   900.00000000 59294 0.7500000000000
+  117   C06C07C08C09C10C11C12C13C14C16C19C20C21C22C23C24C25
+        C26C27C28C29C30C32C33C34C35C36C37C38C39C40C41C42C43
+        C44C45C46E01E02E03E04E05E07E08E09E11E12E13E14E15E18
+        E19E21E24E25E26E27E30E31E33E36G01G02G03G04G05G06G07
+        G08G09G10G11G12G13G14G15G16G17G18G19G20G21G22G23G24
+        G25G26G27G28G29G30G31G32J01J02J03R01R02R03R04R05R07
+        R08R09R11R12R13R14R15R16R17R18R19R20R21R22R24  0  0
++        10 10  9 10  8 10  8  8  9 14  8  8  8  9 10  9  9
++         8  8 10  8  7  9 10 10 10  9 10  9 10 10  9  9  9
++         8 11  8  9  8  8  8  8  8  8  7  8  7  8  7  8  8
++         9  8  7  7  8  9  8  8  7  8  8  8  7  7  8  7  8
++         7  7  7  9  9  6  7  8  8  7  8  7  8  8  8  7  8
++         8  7  7  8  8  8  8  7  9  8 12  9  7  8  8  9  7
++        10  8  9  8  9 10  9  8  9  7  7  8  7  8  7  0  0
%c M  cc GPS ccc cccc cccc cccc cccc ccccc ccccc ccccc ccccc
%c cc cc ccc ccc cccc cccc cccc cccc ccccc ccccc ccccc ccccc
%f  0.0000000  0.000000000  0.00000000000  0.000000000000000
%f  0.0000000  0.000000000  0.00000000000  0.000000000000000
%i    0    0    0    0      0      0      0      0         0
%i    0    0    0    0      0      0      0      0         0
/* IAC                                ULTRA-RAPID PREDICTION
/* S/V CLOCKS ARE ALIGNED TO GNSS TIME                      
/* G:C1WC2W R:C1PC2P E:C1XC5X C:C2IC6I J:C1CC2S             
/* PCV:IGS14_2134 OL/AL:FES2004  NONE     YN ORB:CoN CLK:CoN
*  2021 03 22 10 15  0.00000000
PC06 -12387.819428  21105.407596 -33883.923186    201.307930
PC07 -23858.795135  32178.185797  12535.953290    -42.399893
PC08  -9100.726677  35751.152087  20860.959413   -898.123300
PC09   3799.390092  27583.813875 -31245.156754    650.830833
PC10 -10945.436603  33256.718929  23388.086765    -67.940399
PC11   7332.059377 -13455.240207 -23258.400882   -854.292605
PC12  21657.434486    702.246154 -17555.606182    883.801721
PC13   -318.332746  41615.406533   7628.392658    190.401473
PC14  17419.907013 -18231.698284  12045.421373    272.927837
PC16  -7391.752268  23069.184474 -34376.737380   -746.059794
PC19  -8203.779027  18815.723739 -18867.264019    770.705911
PC20 -22879.875503  15242.484536  -4676.080383   -935.017422
PC21  24594.763607  -2358.676720 -12972.032200   -898.406215
PC22  11701.079141  11578.698967 -22529.504658   -927.597312
PC23  -8943.061710 -22099.396650 -14503.334217   -879.401433
PC24  13821.167784 -16454.120090  17776.628801   -789.970865
PC25   2350.390908 -27740.681163   1735.777154   -944.575471
PC26  16068.706376   2603.331231  22657.664246    931.903129
PC27 -24649.673755  -8450.040349  10001.433086    502.753429
PC28 -18818.061550 -19157.205573  -7587.586023    -95.460233
PC29   2669.970271  18545.219986  20672.112329    368.375222
PC30 -16163.149195   7420.297006  21507.459522    454.316730
PC32 -24560.604947   2482.702254  13024.100206   -918.578308
PC33   8175.479938 -18914.877510  18837.448299   -945.150480
PC34  15583.110515  -8000.439147 -21724.097229   -713.352432
PC35  19228.215476  18601.065667   7864.595796   -363.062735
PC36  -3213.158930  27644.435449  -2053.328312   -738.924069
PC37 -15893.623005  -3913.122685 -22588.301839   -880.647082
PC38  -7848.432308  37707.281466  17317.634021    137.391854
PC39  -5101.148086  23797.422051 -34413.633077     29.608771
PC40 -17738.088433  29479.234806  24291.303220    143.453004
PC41 -11465.229011 -11795.984819  22594.873809   -934.313840
PC42  23197.854769 -14993.995834   4079.013571   -937.255645
PC43  -2043.981629 -18504.700291 -20801.602644   -650.767846
PC44  24946.620998   7681.763446  -9822.303530     98.562878
PC45   8952.622028  22037.474422  14608.903481    393.365900
PC46 -13361.626340  17386.642347 -17281.609622    351.521898
PE01   6179.271751  18748.098999  22054.914602  -1070.789796
PE02  -6295.302806 -18636.115580 -22118.774670    206.769749
PE03 -16750.257872 -14156.604895  19874.988421   -411.643086
PE04  29051.987850   3380.323624  -4547.020491   -734.118139
PE05   5558.151820 -16775.078623  23750.567705   -295.025861
PE07 -24400.632641   9579.905170 -13731.450141   -515.924616
PE08 -29127.619468  -3007.920796   4287.232139   6029.396289
PE09  24255.615244  -9718.762718  13926.286483   5726.506863
PE11  12943.110616  -9912.915579 -24708.936406   6179.168792
PE12  20367.351842  11166.227808 -18328.361841   5297.902022
PE13 -13132.605897   9459.819660  24791.377543    413.915093
PE14 -21700.948113   2609.632100  10114.474826  -1370.414530
PE15 -20372.343540 -11113.886403  18391.890154    823.392247
PE18  22815.743096 -10642.304801 -20243.609231  -1498.721599
PE19  14505.441941  14834.559514 -21103.291865    233.069746
PE21  -9033.979933  26854.897663   8572.648785   -655.007399
PE24  19851.248959 -19015.823935  10925.137299   -806.068891
PE25   9161.001604 -26856.317655  -8410.813056   -529.062679
PE26   2208.679660  24829.328122  15967.014000   2013.234115
PE27 -19578.859828  19660.528025 -10331.759779      5.155779
PE30 -18285.425566    -54.111768 -23294.394691   3086.907612
PE31  18546.931989   -944.548238  23049.848994   -479.408674
PE33  15599.836985  25119.646689  -1161.572220   -466.769270
PE36  -1855.600098 -24460.513117 -16567.727342   -183.314611
PG01 -15232.863322   -636.231076  21545.442113    735.381683
PG02  13771.558724  21473.665315  -6656.716467   -588.513630
PG03 -20846.150448   9519.554872  13252.000522   -115.058898
PG04 -25394.749884   -642.732913  -7847.897558   -187.634288
PG05  13990.791544   7088.213183 -21604.265605    -36.911651
PG06   5395.170576  25649.918167   4161.029655      2.214347
PG07  -9761.855925  14761.682198 -19309.181680     97.989892
PG08 -26201.428470  -5269.067908   -232.395139    -14.660489
PG09 -19105.161379   8254.990088 -16570.552085   -333.090623
PG10   8869.079571 -22016.433438  11754.864441    -86.180241
PG11 -20704.006318  -3332.190703  15649.187662      8.109026
PG12  20616.772387  -5148.275301  15586.115560    -17.417591
PG13  21603.311217  13452.813124  -7960.025067    110.766309
PG14 -10904.335060  21733.384015  10657.148878     99.600249
PG15  26604.119938   2833.729391   -383.616817   -161.433961
PG16 -10955.455912 -10334.182105 -22129.932965   -297.831334
PG17  -2125.370733  14861.351233  22338.443990    413.813294
PG18   7421.958848 -18146.661789 -17896.211608    350.995722
PG19   7252.239064  16123.874805  19569.186121    -23.065460
PG20  16892.463185 -19860.263413  -4073.239353    523.958451
PG21 -17744.321721  -8202.213526  18908.763338    105.101880
PG22 -18450.937946   1056.762473  19209.979343   -655.091986
PG23  16571.301192 -20690.021439   1223.696776    116.812944
PG24  17486.960440   5980.645772  18966.381124      0.760685
PG25  19626.840847 -16972.963525   4666.901554    103.718561
PG26  -3139.872833 -18067.181540 -19178.188060     61.561859
PG27 -20664.379809 -12453.991192 -11682.097804    -98.649694
PG28  -9292.635388  21225.559538  13709.798177    598.437336
PG29  19086.528259  -6477.186172 -17362.992533   -316.350313
PG30  -1257.500258  24038.273365 -10919.037564   -402.016979
PG31  -6769.188603 -25394.652424   1056.487961   -107.062643
PG32   -557.128282 -15624.402491  21589.951225     21.563406
PJ01 -35247.492166  18906.002405  -8746.609160   -357.313638
PJ02 -25029.583249  31788.748565  -7392.829310      3.843234
PJ03 -27268.754670  21727.807217  28773.722262     -2.100358
PR01  20651.416906   1128.685380 -14935.934002     76.750526
PR02  23160.022805  -9170.716492   5394.607902    471.763847
PR03  10418.704655 -12679.363835  19554.691555     32.835801
PR04  -7898.365963  -8782.287894  22639.108476     78.991786
PR05 -21916.929746   -158.230993  13082.152084     68.592167
PR07  -9920.816283  12634.508170 -19789.323061    -42.562013
PR08   7970.484383   8840.504045 -22500.284354    -58.075606
PR09 -12017.819458  14827.177447 -16874.041462    -15.890604
PR11   2626.771555  20382.128506  15111.207819      2.028317
PR12  10341.395710   3880.630321  23013.312760    214.606908
PR13  11856.286383 -14448.152534  17336.071639    -52.330642
PR14   6479.733494 -24657.123559   1012.520709     62.291634
PR15  -2599.748335 -20180.773016 -15366.778508    104.788909
PR16 -10886.528888  -2482.132382 -22961.515320    -12.827238
PR17  -1245.131439 -14472.206052 -20949.522454    410.081099
PR18 -14268.793589 -19373.011909  -8545.100313     70.633425
PR19 -19223.369270 -14915.923670   7667.260456   -136.704872
PR20 -13159.022524    355.327126  21868.895101    -45.770999
PR21   2292.041646  15103.036311  20435.825432   -196.217497
PR22  14741.409596  19339.008899   7518.610228   -103.875966
PR24  12980.118734  -1493.649725 -21890.187551     35.940693
EOF
